[{"OBJECT_NAME":"YAOGAN-39 02B","OBJECT_ID":"2023-145D","EPOCH":"2026-03-09T14:23:58.847424","MEAN_MOTION":15.16715423,"ECCENTRICITY":0.0004349,"INCLINATION":34.9899,"RA_OF_ASC_NODE":125.1097,"ARG_OF_PERICENTER":240.3858,"MEAN_ANOMALY":119.6421,"EPHEMERIS_TYPE":0,"CLASSIFICATION_TYPE":"U","NORAD_CAT_ID":57889,"ELEMENT_SET_NO":999,"REV_AT_EPOCH":13775,"BSTAR":0.00040419,"MEAN_MOTION_DOT":8.082e-5,"MEAN_MOTION_DDOT":0},{"OBJECT_NAME":"TIANYI F","OBJECT_ID":"2025-103F","EPOCH":"2026-03-09T23:54:55.522944","MEAN_MOTION":15.18246358,"ECCENTRICITY":0.00043161,"INCLINATION":97.388,"RA_OF_ASC_NODE":142.7834,"ARG_OF_PERICENTER":136.4512,"MEAN_ANOMALY":223.7064,"EPHEMERIS_TYPE":0,"CLASSIFICATION_TYPE":"U","NORAD_CAT_ID":64053,"ELEMENT_SET_NO":999,"REV_AT_EPOCH":4499,"BSTAR":0.00028443218,"MEAN_MOTION_DOT":5.759e-5,"MEAN_MOTION_DDOT":0}]
